{
    "links": {
        "self": "http://www.neowsapp.com/rest/v1/neo/54016551?api_key=iIulBulltgU6a56xZRHN4H3l9WmuAYTsLGpBGhQ2"
    },
    "id": "54016551",
    "neo_reference_id": "54016551",
    "name": "(2020 GK3)",
    "designation": "2020 GK3",
    "nasa_jpl_url": "http://ssd.jpl.nasa.gov/sbdb.cgi?sstr=54016551",
    "absolute_magnitude_h": 22.765,
    "estimated_diameter": {
        "kilometers": {
            "estimated_diameter_min": 0.0743969235,
            "estimated_diameter_max": 0.1663565782
        },
        "meters": {
            "estimated_diameter_min": 74.3969234759,
            "estimated_diameter_max": 166.3565782089
        },
        "miles": {
            "estimated_diameter_min": 0.0462280907,
            "estimated_diameter_max": 0.1033691534
        },
        "feet": {
            "estimated_diameter_min": 244.0844024166,
            "estimated_diameter_max": 545.789316051
        }
    },
    "is_potentially_hazardous_asteroid": false,
    "close_approach_data": [
        {
            "close_approach_date": "2020-03-26",
            "close_approach_date_full": "2020-Mar-26 06:09",
            "epoch_date_close_approach": 1585202940000,
            "relative_velocity": {
                "kilometers_per_second": "2.0286250853",
                "kilometers_per_hour": "7303.0503069173",
                "miles_per_hour": "4537.8314532065"
            },
            "miss_distance": {
                "astronomical": "0.3054455384",
                "lunar": "118.8183144376",
                "kilometers": "45694001.945643208",
                "miles": "28392936.2110759504"
            },
            "orbiting_body": "Earth"
        }
    ],
    "orbital_data": {
        "orbit_id": "4",
        "orbit_determination_date": "2020-04-26 06:39:35",
        "first_observation_date": "2020-04-15",
        "last_observation_date": "2020-04-26",
        "data_arc_in_days": 11,
        "observations_used": 28,
        "orbit_uncertainty": "9",
        "minimum_orbit_intersection": ".284724",
        "jupiter_tisserand_invariant": "3.417",
        "epoch_osculation": "2458959.5",
        "eccentricity": ".453540547053922",
        "semi_major_axis": "2.341108851415498",
        "inclination": "2.036995154852821",
        "ascending_node_longitude": "29.9077614428355",
        "orbital_period": "1308.370782786227",
        "perihelion_distance": "1.279321062231734",
        "perihelion_argument": "146.5123046966263",
        "aphelion_distance": "3.402896640599262",
        "perihelion_time": "2458918.043143995802",
        "mean_anomaly": "11.40691030239076",
        "mean_motion": ".2751513597952454",
        "equinox": "J2000",
        "orbit_class": {
            "orbit_class_type": "AMO",
            "orbit_class_description": "Near-Earth asteroid orbits similar to that of 1221 Amor",
            "orbit_class_range": "1.017 AU < q (perihelion) < 1.3 AU"
        }
    },
    "is_sentry_object": false
}